[{"OBJECT_NAME":"STARLINK-30553","OBJECT_ID":"2023-158F","EPOCH":"2026-03-09T22:00:01.999584","MEAN_MOTION":15.27575349,"ECCENTRICITY":0.00012398,"INCLINATION":43.0005,"RA_OF_ASC_NODE":25.6344,"ARG_OF_PERICENTER":266.6963,"MEAN_ANOMALY":186.409,"EPHEMERIS_TYPE":0,"CLASSIFICATION_TYPE":"U","NORAD_CAT_ID":58056,"ELEMENT_SET_NO":999,"REV_AT_EPOCH":578,"BSTAR":0.0013758449,"MEAN_MOTION_DOT":0.00037787,"MEAN_MOTION_DDOT":0},{"OBJECT_NAME":"STARLINK-36554","OBJECT_ID":"2026-012K","EPOCH":"2026-03-08T17:06:15.871680","MEAN_MOTION":15.27591469,"ECCENTRICITY":6.955e-5,"INCLINATION":42.9934,"RA_OF_ASC_NODE":319.8184,"ARG_OF_PERICENTER":339.2059,"MEAN_ANOMALY":20.8765,"EPHEMERIS_TYPE":0,"CLASSIFICATION_TYPE":"U","NORAD_CAT_ID":67502,"ELEMENT_SET_NO":999,"REV_AT_EPOCH":761,"BSTAR":0.0011969118,"MEAN_MOTION_DOT":0.00032833,"MEAN_MOTION_DDOT":0}]
